[{"OBJECT_NAME":"WILDFIRE 4","OBJECT_ID":"2023-133A","EPOCH":"2026-03-09T14:48:10.641312","MEAN_MOTION":13.86338286,"ECCENTRICITY":0.0008775,"INCLINATION":80.9988,"RA_OF_ASC_NODE":101.8986,"ARG_OF_PERICENTER":262.7751,"MEAN_ANOMALY":97.2408,"EPHEMERIS_TYPE":0,"CLASSIFICATION_TYPE":"U","NORAD_CAT_ID":57756,"ELEMENT_SET_NO":999,"REV_AT_EPOCH":12732,"BSTAR":6.2929e-5,"MEAN_MOTION_DOT":8.4e-7,"MEAN_MOTION_DDOT":0},{"OBJECT_NAME":"DELTA 1 DEB","OBJECT_ID":"1978-026BK","EPOCH":"2026-03-09T16:25:43.188960","MEAN_MOTION":13.98192859,"ECCENTRICITY":0.00531828,"INCLINATION":99.3443,"RA_OF_ASC_NODE":310.4847,"ARG_OF_PERICENTER":84.1624,"MEAN_ANOMALY":345.8011,"EPHEMERIS_TYPE":0,"CLASSIFICATION_TYPE":"U","NORAD_CAT_ID":12218,"ELEMENT_SET_NO":999,"REV_AT_EPOCH":29572,"BSTAR":0.00042946607,"MEAN_MOTION_DOT":5.73e-6,"MEAN_MOTION_DDOT":0}]
